[{"OBJECT_NAME":"ZHUHAI-1 03D","OBJECT_ID":"2019-060E","EPOCH":"2026-03-09T22:12:44.409600","MEAN_MOTION":15.43807554,"ECCENTRICITY":0.00080361,"INCLINATION":97.5253,"RA_OF_ASC_NODE":214.8478,"ARG_OF_PERICENTER":305.9727,"MEAN_ANOMALY":54.0775,"EPHEMERIS_TYPE":0,"CLASSIFICATION_TYPE":"U","NORAD_CAT_ID":44538,"ELEMENT_SET_NO":999,"REV_AT_EPOCH":36073,"BSTAR":0.00071898588,"MEAN_MOTION_DOT":0.00032597,"MEAN_MOTION_DDOT":0},{"OBJECT_NAME":"STARLINK-1080","OBJECT_ID":"2020-001AZ","EPOCH":"2026-03-09T20:59:34.461888","MEAN_MOTION":15.47300458,"ECCENTRICITY":0.00070389,"INCLINATION":53.0522,"RA_OF_ASC_NODE":287.315,"ARG_OF_PERICENTER":121.0745,"MEAN_ANOMALY":239.0954,"EPHEMERIS_TYPE":0,"CLASSIFICATION_TYPE":"U","NORAD_CAT_ID":44961,"ELEMENT_SET_NO":999,"REV_AT_EPOCH":34070,"BSTAR":0.0022013341,"MEAN_MOTION_DOT":0.00115497,"MEAN_MOTION_DDOT":0}]
